NORAD_CAT_ID,OBJECT_NAME,OBJECT_TYPE,EPOCH,MEAN_MOTION,ECCENTRICITY,INCLINATION,RA_OF_ASC_NODE,ARG_OF_PERICENTER,MEAN_ANOMALY,BSTAR,MEAN_MOTION_DOT,MEAN_MOTION_DDOT,TLE_LINE0,TLE_LINE1,TLE_LINE2,SEMIMAJOR_AXIS,PERIOD,APOGEE,PERIGEE,DECAYED
53155.0,STARLINK-4088,PAYLOAD,2022-08-08 14:00:01,15.73280079,0.000391,53.2183,297.9877,3.2083,169.2053,-0.00010148,-0.00014897,0.0,0 STARLINK-4088,1 53155U 22083Z   22220.58335648 -.00014897  00000-0 -10148-3 0  9992,2 53155  53.2183 297.9877 0003910   3.2083 169.2053 15.73280079  4115,6727.667,91.529,352.162,346.901,0.0
53155.0,STARLINK-4088,PAYLOAD,2022-08-08 22:00:00,15.733004800000002,0.0003827,53.218,296.3368,2.5426,258.843,-0.0009835,-0.00137086,0.0,0 STARLINK-4088,1 53155U 22083Z   22220.91667824 -.00137086  00000-0 -98350-3 0  9990,2 53155  53.2180 296.3368 0003827   2.5426 258.8430 15.73300480  1301,6727.609,91.527,352.048,346.899,0.0
53155.0,STARLINK-4088,PAYLOAD,2022-08-09 04:00:00,15.73195485,0.0003727,53.2179,295.0988,3.4541,234.6821,-8.695e-05,-0.00012811,0.0,0 STARLINK-4088,1 53155U 22083Z   22221.16667824 -.00012811  00000-0 -86950-4 0  9990,2 53155  53.2179 295.0988 0003727   3.4541 234.6821 15.73195485  4205,6727.908,91.533,352.281,347.266,0.0
53155.0,STARLINK-4088,PAYLOAD,2022-08-09 12:00:00,15.73200356,0.0003996,53.2176,293.4516,2.2322,324.8044,-0.00075945,-0.00105936,0.0,0 STARLINK-4088,1 53155U 22083Z   22221.50001157 -.00105936  00000-0 -75945-3 0  9991,2 53155  53.2176 293.4516 0003996   2.2322 324.8044 15.73200356  4251,6727.894,91.533,352.4480000000001,347.071,0.0
53155.0,STARLINK-4088,PAYLOAD,2022-08-09 14:00:01,15.7317698,0.0004059,53.2177,293.0397,2.1704,77.0968,-0.00064559,-0.00090224,0.0,0 STARLINK-4088,1 53155U 22083Z   22221.58334491 -.00090224  00000-0 -64559-3 0  9991,2 53155  53.2177 293.0397 0004059   2.1704  77.0968 15.73176980  1309,6727.9609999999975,91.535,352.557,347.095,0.0
53155.0,STARLINK-4088,PAYLOAD,2022-08-09 22:00:00,15.73099336,0.0003976,53.2176,291.3888,3.0616,165.079,-4.9503e-05,-7.538e-05,0.0,0 STARLINK-4088,1 53155U 22083Z   22221.91667824 -.00007538  00000-0 -49503-4 0  9996,2 53155  53.2176 291.3888 0003976   3.0616 165.0790 15.73099336  1303,6728.182,91.539,352.722,347.372,0.0
53155.0,STARLINK-4088,PAYLOAD,2022-08-10 04:00:00,15.73090424,0.0003859,53.2176,290.1512,5.7010000000000005,139.0427,0.00056279,0.00078758,0.0,0 STARLINK-4088,1 53155U 22083Z   22222.16667824  .00078758  00000-0  56279-3 0  9991,2 53155  53.2176 290.1512 0003859   5.7010 139.0427 15.73090424  4367,6728.208000000001,91.54,352.6690000000001,347.476,0.0
53155.0,STARLINK-4088,PAYLOAD,2022-08-10 14:00:01,15.730821300000002,0.0004237,53.2177,288.0922,5.794,339.9836,0.0013193,0.00187837,0.0,0 STARLINK-4088,1 53155U 22083Z   22222.58334491  .00187837  00000-0  13193-2 0  9994,2 53155  53.2177 288.0922 0004237   5.7940 339.9836 15.73082130  1303,6728.231,91.54,352.94699999999995,347.245,0.0
53155.0,STARLINK-4088,PAYLOAD,2022-08-10 22:00:00,15.73242301,0.000411,53.2174,286.4412,4.4542,70.1842,-0.00019725,-0.00028279,0.0,0 STARLINK-4088,1 53155U 22083Z   22222.91667824 -.00028279  00000-0 -19725-3 0  9994,2 53155  53.2174 286.4412 0004110   4.4542  70.1842 15.73242301  1309,6727.775,91.531,352.405,346.874,0.0
53155.0,STARLINK-4088,PAYLOAD,2022-08-11 14:00:01,15.731874,0.0004424999999999,53.2167,283.1443,9.2002,243.3511,0.00054886,0.00077109,0.0,0 STARLINK-4088,1 53155U 22083Z   22223.58334491  .00077109  00000-0  54886-3 0  9990,2 53155  53.2167 283.1443 0004425   9.2002 243.3511 15.73187400  1307,6727.931,91.534,352.773,346.819,0.0
53155.0,STARLINK-4088,PAYLOAD,2022-08-11 22:00:00,15.73243729,0.0004207,53.2164,281.4929,9.3511,332.1558,0.00020723,0.00028625,0.0,0 STARLINK-4088,1 53155U 22083Z   22223.91667824  .00028625  00000-0  20723-3 0  9998,2 53155  53.2164 281.4929 0004207   9.3511 332.1558 15.73243729  4632,6727.771,91.531,352.466,346.805,0.0
53155.0,STARLINK-4088,PAYLOAD,2022-08-12 14:00:01,15.73253466,0.0004421999999999,53.2164,278.1955,6.5467,152.9669,-9.5276e-05,-0.00014013,0.0,0 STARLINK-4088,1 53155U 22083Z   22224.58334491 -.00014013  00000-0 -95276-4 0  9997,2 53155  53.2164 278.1955 0004422   6.5467 152.9669 15.73253466  4744,6727.743,91.53,352.583,346.6330000000001,0.0
53155.0,STARLINK-4088,PAYLOAD,2022-08-12 20:00:01,15.73259499,0.0004261999999999,53.2162,276.9568,4.5631,131.7531,-0.0008257,-0.00115298,0.0,0 STARLINK-4088,1 53155U 22083Z   22224.83335648 -.00115298  00000-0 -82570-3 0  9999,2 53155  53.2162 276.9568 0004262   4.5631 131.7531 15.73259499  4780,6727.726,91.53,352.458,346.723,0.0
53155.0,STARLINK-4088,PAYLOAD,2022-08-12 22:00:01,15.73222041,0.0004176999999999,53.2163,276.54400000000004,3.9136,244.6529,-0.00043786,-0.00061718,0.0,0 STARLINK-4088,1 53155U 22083Z   22224.91668981 -.00061718  00000-0 -43786-3 0  9990,2 53155  53.2163 276.5440 0004177   3.9136 244.6529 15.73222041  1303,6727.831999999999,91.532,352.5080000000001,346.88699999999994,0.0
53155.0,STARLINK-4088,PAYLOAD,2022-08-13 04:00:00,15.73196733,0.000408,53.2161,275.3067,3.0473,222.1465,-8.423700000000001e-05,-0.00012433,0.0,0 STARLINK-4088,1 53155U 22083Z   22225.16667824 -.00012433  00000-0 -84237-4 0  9990,2 53155  53.2161 275.3067 0004080   3.0473 222.1465 15.73196733  4830,6727.904,91.533,352.514,347.025,0.0
53155.0,STARLINK-4088,PAYLOAD,2022-08-13 14:00:01,15.73109528,0.0004458999999999,53.2154,273.247,1.4798,64.8583,0.00059807,0.00083865,0.0,0 STARLINK-4088,1 53155U 22083Z   22225.58334491  .00083865  00000-0  59807-3 0  9996,2 53155  53.2154 273.2470 0004459   1.4798  64.8583 15.73109528  1306,6728.153,91.538,353.01800000000014,347.01800000000014,0.0
53155.0,STARLINK-4088,PAYLOAD,2022-08-13 22:00:00,15.73146988,0.0004245,53.2154,271.5955,1.5364,153.6629,0.00037938,0.00052857,0.0,0 STARLINK-4088,1 53155U 22083Z   22225.91667824  .00052857  00000-0  37938-3 0  9990,2 53155  53.2154 271.5955 0004245   1.5364 153.6629 15.73146988  1307,6728.045999999999,91.536,352.767,347.055,0.0
53155.0,STARLINK-4088,PAYLOAD,2022-08-14 04:00:00,15.73184752,0.0004122,53.2158,270.3557,4.1045,127.7527,0.00026802,0.00037148,0.0,0 STARLINK-4088,1 53155U 22083Z   22226.16667824  .00037148  00000-0  26802-3 0  9992,2 53155  53.2158 270.3557 0004122   4.1045 127.7527 15.73184752  4993,6727.939,91.534,352.577,347.03,0.0
53155.0,STARLINK-4088,PAYLOAD,2022-08-14 12:00:00,15.73208532,0.0004536,53.2161,268.7096,3.916,216.8971,0.00039028,0.00054553,0.0,0 STARLINK-4088,1 53155U 22083Z   22226.50001157  .00054553  00000-0  39028-3 0  9994,2 53155  53.2161 268.7096 0004536   3.9160 216.8971 15.73208532  5043,6727.871,91.533,352.788,346.684,0.0
53155.0,STARLINK-4088,PAYLOAD,2022-08-14 14:00:01,15.73221539,0.0004554999999999,53.2155,268.2983,2.8156,330.22,7.6394e-05,0.00010124,0.0,0 STARLINK-4088,1 53155U 22083Z   22226.58334491  .00010124  00000-0  76394-4 0  9996,2 53155  53.2155 268.2983 0004555   2.8156 330.2200 15.73221539  1303,6727.834,91.532,352.76300000000015,346.634,0.0
53155.0,STARLINK-4088,PAYLOAD,2022-08-14 20:00:01,15.73228093,0.0004319,53.2156,267.0594,2.9861,306.7786,-0.00032702,-0.0004635,0.0,0 STARLINK-4088,1 53155U 22083Z   22226.83334491 -.00046350  00000-0 -32702-3 0  9990,2 53155  53.2156 267.0594 0004319   2.9861 306.7786 15.73228093  5090,6727.815,91.532,352.586,346.774,0.0
53155.0,STARLINK-4088,PAYLOAD,2022-08-14 22:00:00,15.73174249,0.0004231,53.2156,266.6466,2.2802,59.7391,0.00041127,0.00057452,0.0,0 STARLINK-4088,1 53155U 22083Z   22226.91667824  .00057452  00000-0  41127-3 0  9992,2 53155  53.2156 266.6466 0004231   2.2802  59.7391 15.73174249  1304,6727.969,91.535,352.68,346.987,0.0
53155.0,STARLINK-4088,PAYLOAD,2022-08-15 04:00:00,15.73218464,0.0004228,53.2155,265.4096,3.4323,35.2654,0.00016903,0.00023193,0.0,0 STARLINK-4088,1 53155U 22083Z   22227.16667824  .00023193  00000-0  16903-3 0  9999,2 53155  53.2155 265.4096 0004228   3.4323  35.2654 15.73218464  5141,6727.843000000003,91.532,352.552,346.86300000000006,0.0
53155.0,STARLINK-4088,PAYLOAD,2022-08-15 14:00:01,15.73202584,0.0004423999999999,53.2148,263.3493,1.5043,238.3919,-0.00011261,-0.0001641,0.0,0 STARLINK-4088,1 53155U 22083Z   22227.58334491 -.00016410  00000-0 -11261-3 0  9994,2 53155  53.2148 263.3493 0004424   1.5043 238.3919 15.73202584  5211,6727.888000000001,91.533,352.72900000000016,346.776,0.0
53155.0,STARLINK-4088,PAYLOAD,2022-08-15 22:00:00,15.7315392,0.0004068,53.2149,261.6977,0.2825,328.5602,0.00011926,0.00016119,0.0,0 STARLINK-4088,1 53155U 22083Z   22227.91667824  .00016119  00000-0  11926-3 0  9992,2 53155  53.2149 261.6977 0004068   0.2825 328.5602 15.73153920  1304,6728.026999999999,91.536,352.629,347.155,0.0
53155.0,STARLINK-4088,PAYLOAD,2022-08-16 14:00:01,15.7317834,0.000439,53.2152,258.4006,1.4573,145.1753,0.00050108,0.00070256,0.0,0 STARLINK-4088,1 53155U 22083Z   22228.58334491  .00070256  00000-0  50108-3 0  9994,2 53155  53.2152 258.4006 0004390   1.4573 145.1753 15.73178340  1309,6727.956999999999,91.534,352.776,346.86800000000005,0.0
53155.0,STARLINK-4088,PAYLOAD,2022-08-16 20:00:01,15.73216859,0.0004218999999999,53.2156,257.1617,2.588,120.7433,0.00019108,0.00026308,0.0,0 STARLINK-4088,1 53155U 22083Z   22228.83334491  .00026308  00000-0  19108-3 0  9996,2 53155  53.2156 257.1617 0004219   2.5880 120.7433 15.73216859  5418,6727.847,91.532,352.551,346.874,0.0
53155.0,STARLINK-4088,PAYLOAD,2022-08-16 22:00:00,15.73212887,0.0004184,53.2154,256.7489,3.1353,232.4381,0.00028519,0.00039629,0.0,0 STARLINK-4088,1 53155U 22083Z   22228.91667824  .00039629  00000-0  28519-3 0  9990,2 53155  53.2154 256.7489 0004184   3.1353 232.4381 15.73212887  1305,6727.858,91.532,352.538,346.908,0.0
53155.0,STARLINK-4088,PAYLOAD,2022-08-17 12:00:00,15.73194013,0.0004476,53.215,253.8644,7.5911,293.6581,0.00032339,0.00045016,0.0,0 STARLINK-4088,1 53155U 22083Z   22229.50001157  .00045016  00000-0  32339-3 0  9999,2 53155  53.2150 253.8644 0004476   7.5911 293.6581 15.73194013  5512,6727.9119999999975,91.534,352.789,346.766,0.0
